ONEWEB-0451             
1 51643U 22012X   24005.89520244  .00000040  00000+0  69280-4 0  9993
2 51643  87.9198 183.4736 0001394 100.1838 259.9451 13.17647592 96020
ONEWEB-0452             
1 51644U 22012Y   24005.89362081 -.00000097  00000+0 -28227-3 0  9996
2 51644  87.9206 183.5037 0001069  95.3975 264.7278 13.17649092 96031
ONEWEB-0455             
1 51645U 22012Z   24005.87230830  .00000394  00000+0  16779-3 0  9998
2 51645  87.5359 163.8665 0017994 150.6088 209.6119 14.22685718 99081
ONEWEB-0456             
1 51646U 22012AA  24005.65481503  .00000175  00000+0  46393-3 0  9992
2 51646  87.8886 213.7312 0001819  90.1001 270.0334 13.10367822 92326
ONEWEB-0457             
1 51647U 22012AB  24005.63206257  .00000606  00000+0  16983-2 0  9992
2 51647  87.8901 213.7440 0001178  75.3503 284.7755 13.10375946 92322
ONEWEB-0458             
1 51648U 22012AC  24005.65318042  .00000245  00000+0  66651-3 0  9998
2 51648  87.8896 213.7532 0001270  93.2853 266.8420 13.10370896 92282
ONEWEB-0461             
1 51649U 22012AD  24005.91578648  .00000076  00000+0  16194-3 0  9997
2 51649  87.9199 183.4755 0001465  86.2360 273.8939 13.17651123 96257
ONEWEB-0463             
1 51650U 22012AE  24005.89838451  .00000009  00000+0 -94298-5 0  9997
2 51650  87.9208 183.5183 0001439  88.3563 271.7734 13.17649150 96038
ONEWEB-0464             
1 51651U 22012AF  24005.64995557  .00000723  00000+0  20341-2 0  9999
2 51651  87.8896 213.7425 0001759  97.8753 262.2574 13.10370009 92307
ONEWEB-0468             
1 51652U 22012AG  24005.58009355  .00000503  00000+0  14040-2 0  9990
2 51652  87.8895 213.7499 0001428  90.3350 269.7941 13.10370201 92272
ONEWEB-0473             
1 51653U 22012AH  24005.64183561  .00000688  00000+0  19359-2 0  9992
2 51653  87.8898 213.7404 0001461  95.8165 264.3129 13.10373091 92283
ONEWEB-0474             
1 51654U 22012AJ  24005.63371159  .00000588  00000+0  16468-2 0  9991
2 51654  87.8891 213.7545 0001492 101.2553 258.8742 13.10374233 92277
ONEWEB-0475             
1 51655U 22012AK  24005.90946177  .00000036  00000+0  59504-4 0  9998
2 51655  87.9209 183.4957 0001522 112.5899 247.5393 13.17646194 96056
ONEWEB-0490             
1 54113U 22138A   24005.86111786  .00000021  00000+0  20801-4 0  9996
2 54113  87.9203 122.7967 0001780 109.2543 250.8783 13.19727248 59000
ONEWEB-0492             
1 54114U 22138B   24005.81057471  .00000118  00000+0  26309-3 0  9997
2 54114  87.9202 122.8004 0001956 112.0778 248.0563 13.19725951 59004
ONEWEB-0495             
1 54115U 22138C   24005.86427798  .00000067  00000+0  13462-3 0  9995
2 54115  87.9206 122.8015 0001930 121.4456 238.6866 13.19725210 58996
ONEWEB-0497             
1 54116U 22138D   24005.87690942 -.00000126  00000+0 -34822-3 0  9991
2 54116  87.9205 122.7941 0001815 109.8868 250.2460 13.19725889 58983
ONEWEB-0499             
1 54117U 22138E   24005.85953695  .00000156  00000+0  35679-3 0  9999
2 54117  87.9203 122.7918 0001298 125.6858 234.4396 13.19725829 58993
ONEWEB-0500             
1 54118U 22138F   24005.86271401  .00000036  00000+0  57235-4 0  9999
2 54118  87.9209 122.7918 0001832 108.2480 251.8852 13.19725662 59000
ONEWEB-0501             
1 54119U 22138G   24005.74107596  .00000109  00000+0  23984-3 0  9994
2 54119  87.9202 122.8168 0001960 123.5021 236.6299 13.19724712 58960
ONEWEB-0502             
1 54120U 22138H   24005.87848738  .00000092  00000+0  19834-3 0  9990
2 54120  87.9205 122.7810 0001722 119.7908 240.3396 13.19727141 59000
ONEWEB-0503             
1 54121U 22138J   24005.86743416  .00000089  00000+0  18910-3 0  9997
2 54121  87.9204 122.7906 0001263 103.7062 256.4212 13.19726411 58991
ONEWEB-0504             
1 54122U 22138K   24005.85480442  .00000013  00000+0  69065-6 0  9991
2 54122  87.9208 122.7956 0001505 121.4918 238.6362 13.19724663 59005
ONEWEB-0505             
1 54123U 22138L   24005.85163727  .00000047  00000+0  83829-4 0  9995
2 54123  87.9205 122.7935 0001892 130.3574 229.7724 13.19726659 58982
ONEWEB-0506             
1 54124U 22138M   24005.82637451  .00000071  00000+0  14432-3 0  9993
2 54124  87.9204 122.7948 0001773 115.7169 244.4147 13.19728546 58970
ONEWEB-0507             
1 54125U 22138N   24005.84689817  .00000049  00000+0  88896-4 0  9990
2 54125  87.9212 122.7985 0001855 115.6448 244.4876 13.19725392 59023
ONEWEB-0508             
1 54126U 22138P   24005.84373934  .00000379  00000+0  91540-3 0  9996
2 54126  87.9203 122.7976 0002124 137.1169 223.0129 13.19722203 59003
ONEWEB-0509             
1 54127U 22138Q   24005.74265633  .00000049  00000+0  89481-4 0  9998
2 54127  87.9201 122.8151 0001660 112.1278 248.0031 13.19726595 58967
ONEWEB-0510             
1 54128U 22138R   24005.65588950 -.00000178  00000+0 -46853-3 0  9999
2 54128  87.9236  92.2909 0002248 104.6917 255.4465 13.20770767 61336
ONEWEB-0511             
1 54129U 22138S   24005.36040924  .00000073  00000+0  14898-3 0  9998
2 54129  87.9202 122.8928 0001225 113.7007 246.4254 13.19725673 58949
ONEWEB-0512             
1 54130U 22138T   24005.88323136  .00000063  00000+0  12465-3 0  9993
2 54130  87.9212 122.7921 0001823 124.9698 235.1606 13.19727595 58983
ONEWEB-0513             
1 54131U 22138U   24005.85400575  .00000042  00000+0  72750-4 0  9995
2 54131  87.9203 122.7962 0001627 134.9453 225.1812 13.19724943 58860
ONEWEB-0514             
1 54132U 22138V   24005.74739247  .00000057  00000+0  11067-3 0  9994
2 54132  87.9204 122.8196 0001599 105.7885 254.3424 13.19723871 58980
ONEWEB-0515             
1 54133U 22138W   24005.79477862  .00000065  00000+0  12745-3 0  9995
2 54133  87.9196  92.2489 0002576  82.6514 277.4912 13.20769340 61372
ONEWEB-0516             
1 54134U 22138X   24005.87375459  .00000196  00000+0  45611-3 0  9997
2 54134  87.9212 122.7945 0001815 111.5177 248.6149 13.19726533 59004
ONEWEB-0517             
1 54135U 22138Y   24005.85321869  .00000058  00000+0  11231-3 0  9990
2 54135  87.9204 122.7956 0001639 121.8527 238.2765 13.19725122 59007
ONEWEB-0518             
1 54136U 22138Z   24005.87217320  .00000145  00000+0  32875-3 0  9993
2 54136  87.9213 122.7942 0001467 110.5319 249.5972 13.19727349 59004
ONEWEB-0519             
1 54137U 22138AA  24005.74580677  .00000089  00000+0  18970-3 0  9995
2 54137  87.9201 122.8138 0001506 122.5227 237.6051 13.19723774 58996
ONEWEB-0520             
1 54138U 22138AB  24005.85637611  .00000002  00000+0 -27499-4 0  9992
2 54138  87.9206 122.7938 0001849 121.0099 239.1215 13.19726353 58995
ONEWEB-0521             
1 54139U 22138AC  24005.35883344  .00000000  00000+0 -31225-4 0  9994
2 54139  87.9199 122.8875 0001416 100.0877 260.0416 13.19725992 58870
ONEWEB-0522             
1 54140U 22138AD  24005.86901136  .00000086  00000+0  18287-3 0  9997
2 54140  87.9204 122.7883 0001861 111.7900 248.3430 13.19724798 58987
ONEWEB-0523             
1 54141U 22138AE  24005.78217277 -.00000172  00000+0 -45379-3 0  9995
2 54141  87.9199  92.2783 0002179  72.0456 288.0915 13.20772562 61379
ONEWEB-0524             
1 54142U 22138AF  24005.77110732 -.00000012  00000+0 -62516-4 0  9999
2 54142  87.9200  92.2843 0002859  90.7889 269.3572 13.20770208 61378
ONEWEB-0525             
1 54143U 22138AG  24005.81214727 -.00000103  00000+0 -28899-3 0  9990
2 54143  87.9205 122.8042 0001781 119.2754 240.8557 13.19725464 58999
ONEWEB-0526             
1 54144U 22138AH  24005.84534387  .00000275  00000+0  65569-3 0  9994
2 54144  87.9202 122.7961 0001980 138.9298 221.1984 13.19724971 58974
ONEWEB-0529             
1 54145U 22138AJ  24005.84849220  .00000028  00000+0  38449-4 0  9994
2 54145  87.9213 122.7978 0001933 118.2202 241.9126 13.19725443 58994
ONEWEB-0531             
1 54146U 22138AK  24005.75691710  .00000006  00000+0 -18084-4 0  9994
2 54146  87.9200  92.2765 0002399  78.2744 281.8659 13.20771070 61378
ONEWEB-0535             
1 54147U 22138AL  24005.88164910 -.00000002  00000+0 -37475-4 0  9998
2 54147  87.9203 122.7877 0001583  94.3145 265.8169 13.19724498 59019
ONEWEB-0536             
1 54148U 22138AM  24005.74427305  .00000077  00000+0  15650-3 0  9994
2 54148  87.9197  92.3301 0001796  66.5339 293.5983 13.20778241 61368
GSLV R/B                
1 54149U 22138AN  24005.66599851  .00002019  00000+0  20732-3 0  9997
2 54149  87.3798  71.4916 0025963 139.2304 221.0873 14.89624132 65433
ONEWEB-0527             
1 54642U 22166A   24005.65094417  .00000037  00000+0  57358-4 0  9996
2 54642  87.9210  61.8703 0001977  97.9824 262.1534 13.21826652 53498
ONEWEB-0528             
1 54643U 22166B   24005.65725971  .00000013  00000+0 -62048-6 0  9992
2 54643  87.9234  61.8476 0001920 104.9898 255.1448 13.21827583 53502
ONEWEB-0539             
1 54644U 22166C   24005.69352414 -.00000026  00000+0 -93961-4 0  9996
2 54644  87.9234  61.8408 0001652 102.3196 257.8123 13.21824117 53502
ONEWEB-0540             
1 54645U 22166D   24005.68800188 -.00000064  00000+0 -18615-3 0  9996
2 54645  87.9237  61.8695 0001638 108.5109 251.6203 13.21826989 53498
ONEWEB-0542             
1 54646U 22166E   24005.70298821 -.00000011  00000+0 -58695-4 0  9990
2 54646  87.9234  61.8388 0001299  93.9380 266.1902 13.21825236 53509
ONEWEB-0545             
1 54647U 22166F   24005.66987003  .00000049  00000+0  86376-4 0  9999
2 54647  87.9224  61.8830 0001440 115.3765 244.7518 13.21827223 53463
ONEWEB-0580             
1 54648U 22166G   24005.64305946  .00000073  00000+0  14486-3 0  9997
2 54648  87.9231  61.8443 0001217  91.3741 268.7532 13.21826643 53503
ONEWEB-0582             
1 54649U 22166H   24005.68564002 -.00000006  00000+0 -47128-4 0  9990
2 54649  87.9235  61.8784 0001742 110.6321 249.5000 13.21825840 53480
ONEWEB-0583             
1 54650U 22166J   24005.69667806 -.00000116  00000+0 -31271-3 0  9992
2 54650  87.9226  61.8793 0002216 101.1816 258.9568 13.21825198 53493
